{
    "links": {
        "self": "http://www.neowsapp.com/rest/v1/neo/3836759?api_key=iIulBulltgU6a56xZRHN4H3l9WmuAYTsLGpBGhQ2"
    },
    "id": "3836759",
    "neo_reference_id": "3836759",
    "name": "(2018 XE2)",
    "designation": "2018 XE2",
    "nasa_jpl_url": "http://ssd.jpl.nasa.gov/sbdb.cgi?sstr=3836759",
    "absolute_magnitude_h": 24.9,
    "estimated_diameter": {
        "kilometers": {
            "estimated_diameter_min": 0.0278326768,
            "estimated_diameter_max": 0.0622357573
        },
        "meters": {
            "estimated_diameter_min": 27.8326768072,
            "estimated_diameter_max": 62.2357573367
        },
        "miles": {
            "estimated_diameter_min": 0.0172944182,
            "estimated_diameter_max": 0.0386714948
        },
        "feet": {
            "estimated_diameter_min": 91.3145593761,
            "estimated_diameter_max": 204.1855621004
        }
    },
    "is_potentially_hazardous_asteroid": false,
    "close_approach_data": [
        {
            "close_approach_date": "2018-12-14",
            "close_approach_date_full": "2018-Dec-14 06:45",
            "epoch_date_close_approach": 1544769900000,
            "relative_velocity": {
                "kilometers_per_second": "21.1490791379",
                "kilometers_per_hour": "76136.6848963738",
                "miles_per_hour": "47308.3751235274"
            },
            "miss_distance": {
                "astronomical": "0.027326301",
                "lunar": "10.629931089",
                "kilometers": "4087956.42457887",
                "miles": "2540138.334453606"
            },
            "orbiting_body": "Earth"
        },
        {
            "close_approach_date": "2019-02-18",
            "close_approach_date_full": "2019-Feb-18 23:28",
            "epoch_date_close_approach": 1550532480000,
            "relative_velocity": {
                "kilometers_per_second": "16.9752237001",
                "kilometers_per_hour": "61110.8053203352",
                "miles_per_hour": "37971.8778947383"
            },
            "miss_distance": {
                "astronomical": "0.0884421333",
                "lunar": "34.4039898537",
                "kilometers": "13230754.759936071",
                "miles": "8221209.7852609398"
            },
            "orbiting_body": "Venus"
        }
    ],
    "orbital_data": {
        "orbit_id": "2",
        "orbit_determination_date": "2018-12-13 06:56:37",
        "first_observation_date": "2018-12-10",
        "last_observation_date": "2018-12-13",
        "data_arc_in_days": 3,
        "observations_used": 47,
        "orbit_uncertainty": "8",
        "minimum_orbit_intersection": ".0165021",
        "jupiter_tisserand_invariant": "3.268",
        "epoch_osculation": "2458463.5",
        "eccentricity": ".7318258179843961",
        "semi_major_axis": "2.175346572253393",
        "inclination": "6.438165408937785",
        "ascending_node_longitude": "251.0682940225082",
        "orbital_period": "1171.901509283309",
        "perihelion_distance": ".5833717876145015",
        "perihelion_argument": "277.9657850123883",
        "aphelion_distance": "3.767321356892284",
        "perihelion_time": "2458511.754116409103",
        "mean_anomaly": "345.1766707614356",
        "mean_motion": ".3071930509076334",
        "equinox": "J2000",
        "orbit_class": {
            "orbit_class_type": "APO",
            "orbit_class_description": "Near-Earth asteroid orbits which cross the Earth’s orbit similar to that of 1862 Apollo",
            "orbit_class_range": "a (semi-major axis) > 1.0 AU; q (perihelion) < 1.017 AU"
        }
    },
    "is_sentry_object": false
}